[{"OBJECT_NAME":"STARLINK-35203","OBJECT_ID":"2025-198G","EPOCH":"2026-03-09T20:55:00.700032","MEAN_MOTION":15.3020186,"ECCENTRICITY":0.00010218,"INCLINATION":53.1582,"RA_OF_ASC_NODE":270.4597,"ARG_OF_PERICENTER":92.6309,"MEAN_ANOMALY":267.4809,"EPHEMERIS_TYPE":0,"CLASSIFICATION_TYPE":"U","NORAD_CAT_ID":65498,"ELEMENT_SET_NO":999,"REV_AT_EPOCH":2864,"BSTAR":0.0010082635,"MEAN_MOTION_DOT":0.00029623,"MEAN_MOTION_DDOT":0},{"OBJECT_NAME":"PSLV R\/B","OBJECT_ID":"2020-081L","EPOCH":"2026-03-09T11:07:47.822880","MEAN_MOTION":15.35733047,"ECCENTRICITY":0.00238531,"INCLINATION":36.845,"RA_OF_ASC_NODE":143.8276,"ARG_OF_PERICENTER":144.7418,"MEAN_ANOMALY":215.4916,"EPHEMERIS_TYPE":0,"CLASSIFICATION_TYPE":"U","NORAD_CAT_ID":46915,"ELEMENT_SET_NO":999,"REV_AT_EPOCH":29573,"BSTAR":0.00039539958,"MEAN_MOTION_DOT":0.00014147,"MEAN_MOTION_DDOT":0}]
